NORAD_CAT_ID,OBJECT_NAME,OBJECT_TYPE,EPOCH,MEAN_MOTION,ECCENTRICITY,INCLINATION,RA_OF_ASC_NODE,ARG_OF_PERICENTER,MEAN_ANOMALY,BSTAR,MEAN_MOTION_DOT,MEAN_MOTION_DDOT,TLE_LINE0,TLE_LINE1,TLE_LINE2,SEMIMAJOR_AXIS,PERIOD,APOGEE,PERIGEE,DECAYED
49736.0,STARLINK-3148,PAYLOAD,2022-08-28 05:54:03,15.0884703,0.0002145,53.2189,177.6719,58.8361,301.2841,0.0001267,1.729e-05,0.0,0 STARLINK-3148,1 49736U 21115N   22240.24587777  .00001729  00000-0  12670-3 0  9994,2 49736  53.2189 177.6719 0002145  58.8361 301.2841 15.08847030 40874,6917.859,95.437,541.2080000000002,538.24,0.0
49736.0,STARLINK-3148,PAYLOAD,2022-08-29 02:34:04,15.08842897,0.0002138,53.2188,173.8056,61.651,298.4698,2.8322e-06,-2.43e-06,0.0,0 STARLINK-3148,1 49736U 21115N   22241.10700186 -.00000243  00000-0  28322-5 0  9995,2 49736  53.2188 173.8056 0002138  61.6510 298.4698 15.08842897 41004,6917.871999999999,95.437,541.216,538.257,0.0
49736.0,STARLINK-3148,PAYLOAD,2022-08-29 20:03:19,15.08851329,0.000216,53.2185,170.5357,60.5053,299.6154,-0.00016864,-2.972e-05,0.0,0 STARLINK-3148,1 49736U 21115N   22241.83564427 -.00002972  00000-0 -16864-3 0  9999,2 49736  53.2185 170.5357 0002160  60.5053 299.6154 15.08851329 41116,6917.846,95.437,541.205,538.217,0.0
49736.0,STARLINK-3148,PAYLOAD,2022-08-30 04:00:14,15.08844665,0.0002171,53.2191,169.049,67.33,292.7922,-1.8763e-05,-5.87e-06,0.0,0 STARLINK-3148,1 49736U 21115N   22242.16683945 -.00000587  00000-0 -18763-4 0  9994,2 49736  53.2191 169.0490 0002171  67.3300 292.7922 15.08844665 42276,6917.866,95.437,541.2330000000002,538.229,0.0
49736.0,STARLINK-3148,PAYLOAD,2022-08-30 11:57:10,15.08846795,0.000227,53.2189,167.5616,63.1535,296.9689,2.8652e-05,1.68e-06,0.0,0 STARLINK-3148,1 49736U 21115N   22242.49803610  .00000168  00000-0  28652-4 0  9994,2 49736  53.2189 167.5616 0002270  63.1535 296.9689 15.08846795 41215,6917.86,95.437,541.295,538.154,0.0
49736.0,STARLINK-3148,PAYLOAD,2022-08-31 05:26:26,15.08791604,0.000242,53.2188,164.2903,64.9467,295.1776,0.00058172,8.97e-05,0.0,0 STARLINK-3148,1 49736U 21115N   22243.22669222  .00008970  00000-0  58172-3 0  9993,2 49736  53.2188 164.2903 0002420  64.9467 295.1776 15.08791604 41325,6918.028,95.441,541.567,538.219,0.0
49736.0,STARLINK-3148,PAYLOAD,2022-08-31 19:44:53,15.08842989,0.00021,53.219,161.614,59.9716,300.1484,4.8822e-05,4.89e-06,0.0,0 STARLINK-3148,1 49736U 21115N   22243.82283812  .00000489  00000-0  48822-4 0  9995,2 49736  53.2190 161.6140 0002100  59.9716 300.1484 15.08842989 41414,6917.871,95.437,541.189,538.283,0.0
49736.0,STARLINK-3148,PAYLOAD,2022-09-01 03:41:49,15.08833006,0.0002026,53.2188,160.1276,59.7501,300.3691,-3.3883e-05,-8.27e-06,0.0,0 STARLINK-3148,1 49736U 21115N   22244.15404817 -.00000827  00000-0 -33883-4 0  9991,2 49736  53.2188 160.1276 0002026  59.7501 300.3691 15.08833006 42572,6917.901999999999,95.438,541.168,538.365,0.0
49736.0,STARLINK-3148,PAYLOAD,2022-09-01 11:38:45,15.08837263,0.0001982,53.2188,158.6403,59.5372,300.5816,-1.1589e-05,-4.73e-06,0.0,0 STARLINK-3148,1 49736U 21115N   22244.48524592 -.00000473  00000-0 -11589-4 0  9996,2 49736  53.2188 158.6403 0001982  59.5372 300.5816 15.08837263 41513,6917.889,95.438,541.125,538.383,0.0
49736.0,STARLINK-3148,PAYLOAD,2022-09-02 03:32:36,15.08841332,0.0002003,53.2188,155.6669,59.6549,300.4641,6.8805e-05,8.07e-06,0.0,0 STARLINK-3148,1 49736U 21115N   22245.14764134  .00000807  00000-0  68805-4 0  9990,2 49736  53.2188 155.6669 0002003  59.6549 300.4641 15.08841332 42727,6917.876,95.437,541.127,538.356,0.0
49736.0,STARLINK-3148,PAYLOAD,2022-09-02 11:29:31,15.08845282,0.0002025,53.2189,154.1805,59.6343,300.4849,8.1634e-05,1.011e-05,0.0,0 STARLINK-3148,1 49736U 21115N   22245.47883811  .00001011  00000-0  81634-4 0  9993,2 49736  53.2189 154.1805 0002025  59.6343 300.4849 15.08845282 41660,6917.864000000001,95.437,541.13,538.328,0.0
49736.0,STARLINK-3148,PAYLOAD,2022-09-03 03:23:23,15.08831771,0.0002026,53.2194,151.2065,61.9009,298.2187,4.6757e-05,4.56e-06,0.0,0 STARLINK-3148,1 49736U 21115N   22246.14124854  .00000456  00000-0  46757-4 0  9992,2 49736  53.2194 151.2065 0002026  61.9009 298.2187 15.08831771 42879,6917.906,95.438,541.172,538.369,0.0
49736.0,STARLINK-3148,PAYLOAD,2022-09-03 20:52:37,15.0883596,0.0002055,53.2198,147.936,63.4491,296.6711,0.0001523,2.136e-05,0.0,0 STARLINK-3148,1 49736U 21115N   22246.86988345  .00002136  00000-0  15230-3 0  9992,2 49736  53.2198 147.9360 0002055  63.4491 296.6711 15.08835960 41875,6917.893,95.438,541.179,538.336,0.0
49736.0,STARLINK-3148,PAYLOAD,2022-09-04 03:14:09,15.08850444,0.0002055,53.2195,146.7458,64.4846,295.6359,6.2916e-05,7.13e-06,0.0,0 STARLINK-3148,1 49736U 21115N   22247.13483522  .00000713  00000-0  62916-4 0  9993,2 49736  53.2195 146.7458 0002055  64.4846 295.6359 15.08850444 43022,6917.848000000001,95.437,541.135,538.2919999999998,0.0
49736.0,STARLINK-3148,PAYLOAD,2022-09-05 03:04:56,15.08842545,0.0002182,53.2193,142.2866,54.2147,305.9048,7.5278e-05,9.1e-06,0.0,0 STARLINK-3148,1 49736U 21115N   22248.12843611  .00000910  00000-0  75278-4 0  9996,2 49736  53.2193 142.2866 0002182  54.2147 305.9048 15.08842545 42062,6917.873000000001,95.437,541.247,538.2280000000002,0.0
49736.0,STARLINK-3148,PAYLOAD,2022-09-06 01:20:20,15.08842439,0.0001783,53.2183,138.1228,63.3328,296.7847,-6.491300000000001e-05,-1.321e-05,0.0,0 STARLINK-3148,1 49736U 21115N   22249.05579607 -.00001321  00000-0 -64913-4 0  9993,2 49736  53.2183 138.1228 0001783  63.3328 296.7847 15.08842439 42207,6917.873000000001,95.437,540.971,538.504,0.0
49736.0,STARLINK-3148,PAYLOAD,2022-09-06 15:38:50,15.08823397,0.0001817,53.2182,135.44799999999998,58.3324,301.7845,-0.00014603,-2.61e-05,0.0,0 STARLINK-3148,1 49736U 21115N   22249.65197347 -.00002610  00000-0 -14603-3 0  9998,2 49736  53.2182 135.4480 0001817  58.3324 301.7845 15.08823397 43404,6917.931,95.439,541.053,538.539,0.0
49736.0,STARLINK-3148,PAYLOAD,2022-09-07 01:11:09,15.0882889,0.0002029999999999,53.22,133.6635,53.7566,306.3614,-7.0462e-05,-1.409e-05,0.0,0 STARLINK-3148,1 49736U 21115N   22250.04941120 -.00001409  00000-0 -70462-4 0  9990,2 49736  53.2200 133.6635 0002030  53.7566 306.3614 15.08828890 43466,6917.9140000000025,95.438,541.184,538.375,0.0
49736.0,STARLINK-3148,PAYLOAD,2022-09-07 02:46:32,15.08831353,0.0001911,53.2186,133.3662,52.3879,307.7287,-9.9974e-05,-1.879e-05,0.0,0 STARLINK-3148,1 49736U 21115N   22250.11564966 -.00001879  00000-0 -99974-4 0  9997,2 49736  53.2186 133.3662 0001911  52.3879 307.7287 15.08831353 42362,6917.906999999997,95.438,541.094,538.45,0.0
49736.0,STARLINK-3148,PAYLOAD,2022-09-08 01:01:56,15.08824476,0.0001853,53.2196,129.2028,58.8017,301.3156,1.94e-06,-2.57e-06,0.0,0 STARLINK-3148,1 49736U 21115N   22251.04301901 -.00000257  00000-0  19400-5 0  9993,2 49736  53.2196 129.2028 0001853  58.8017 301.3156 15.08824476 42502,6917.928000000001,95.439,541.075,538.511,0.0
49736.0,STARLINK-3148,PAYLOAD,2022-09-08 21:41:57,15.08832994,0.0001605,53.2182,125.3369,58.5706,301.5443,0.00013224,1.817e-05,0.0,0 STARLINK-3148,1 49736U 21115N   22251.90413749  .00001817  00000-0  13224-3 0  9990,2 49736  53.2182 125.3369 0001605  58.5706 301.5443 15.08832994 43741,6917.901999999999,95.438,540.877,538.656,0.0
49736.0,STARLINK-3148,PAYLOAD,2022-09-09 08:49:38,15.08844972,0.0001792,53.2188,123.2557,58.047,302.0697,0.00020391,2.959e-05,0.0,0 STARLINK-3148,1 49736U 21115N   22252.36780945  .00002959  00000-0  20391-3 0  9997,2 49736  53.2188 123.2557 0001792  58.0470 302.0697 15.08844972 42704,6917.865,95.437,540.97,538.491,0.0
49736.0,STARLINK-3148,PAYLOAD,2022-09-09 15:11:11,15.08838958,0.0001806,53.2191,122.0689,47.4499,312.6646,0.0002092,3.043e-05,0.0,0 STARLINK-3148,1 49736U 21115N   22252.63277355  .00003043  00000-0  20920-3 0  9996,2 49736  53.2191 122.0689 0001806  47.4499 312.6646 15.08838958 43855,6917.884,95.438,540.998,538.499,0.0
49736.0,STARLINK-3148,PAYLOAD,2022-09-09 19:57:21,15.08837238,0.0001905,53.2193,121.1743,61.2936,298.8248,0.00013716,1.895e-05,0.0,0 STARLINK-3148,1 49736U 21115N   22252.83149701  .00001895  00000-0  13716-3 0  9999,2 49736  53.2193 121.1743 0001905  61.2936 298.8248 15.08837238 42771,6917.889,95.438,541.072,538.436,0.0
49736.0,STARLINK-3148,PAYLOAD,2022-09-09 21:32:44,15.08836896,0.0001838,53.2191,120.8772,61.0985,299.0191,0.00012796,1.749e-05,0.0,0 STARLINK-3148,1 49736U 21115N   22252.89773749  .00001749  00000-0  12796-3 0  9995,2 49736  53.2191 120.8772 0001838  61.0985 299.0191 15.08836896 42784,6917.89,95.438,541.026,538.4830000000002,0.0
49736.0,STARLINK-3148,PAYLOAD,2022-09-10 19:48:08,15.08844588,0.0001669,53.2185,116.7135,58.5285,301.587,1.8778e-05,1.1e-07,0.0,0 STARLINK-3148,1 49736U 21115N   22253.82509485  .00000011  00000-0  18778-4 0  9991,2 49736  53.2185 116.7135 0001669  58.5285 301.5870 15.08844588 42926,6917.866,95.437,540.886,538.577,0.0
49736.0,STARLINK-3148,PAYLOAD,2022-09-11 00:34:17,15.08844319,0.0001751,53.2185,115.8217,60.2384,299.8782,4.86e-05,4.86e-06,0.0,0 STARLINK-3148,1 49736U 21115N   22254.02381341  .00000486  00000-0  48600-4 0  9996,2 49736  53.2185 115.8217 0001751  60.2384 299.8782 15.08844319 42955,6917.8669999999975,95.437,540.944,538.521,0.0
49736.0,STARLINK-3148,PAYLOAD,2022-09-11 21:14:18,15.08842961,0.0001621,53.2187,111.956,61.7492,298.3664,3.0155e-05,1.92e-06,0.0,0 STARLINK-3148,1 49736U 21115N   22254.88493326  .00000192  00000-0  30155-4 0  9997,2 49736  53.2187 111.9560 0001621  61.7492 298.3664 15.08842961 43086,6917.871,95.437,540.8580000000002,538.615,0.0
49736.0,STARLINK-3148,PAYLOAD,2022-09-12 02:00:27,15.08847006,0.0001610999999999,53.2187,111.0637,61.1961,298.9193,6.247e-05,7.06e-06,0.0,0 STARLINK-3148,1 49736U 21115N   22255.08364964  .00000706  00000-0  62470-4 0  9991,2 49736  53.2187 111.0637 0001611  61.1961 298.9193 15.08847006 44221,6917.859,95.437,540.8380000000002,538.61,0.0
